{
  "type": "FeatureCollection",
  "features": [
    {
      "type": "Feature",
      "properties": {
        "norad_id": 66909,
        "name": "SILVERSAT",
        "group": "stations",
        "lat": 6.8376210269918385,
        "lon": -50.51660976526754,
        "alt_km": 409.77409432879176,
        "timestamp": "2025-12-14T05:42:17.221326+00:00",
        "meta_object_name": "SILVERSAT",
        "meta_object_id": "1998-067XV",
        "meta_epoch": "2025-12-13T16:36:20.876256",
        "meta_mean_motion": 15.51801579,
        "meta_eccentricity": 0.00043516,
        "meta_inclination": 51.6299,
        "meta_ra_of_asc_node": 137.6482,
        "meta_arg_of_pericenter": 233.7111,
        "meta_mean_anomaly": 126.3477,
        "meta_ephemeris_type": 0,
        "meta_classification_type": "U",
        "meta_norad_cat_id": 66909,
        "meta_element_set_no": 999,
        "meta_rev_at_epoch": 176,
        "meta_bstar": 0.0012037928,
        "meta_mean_motion_dot": 0.0007349,
        "meta_mean_motion_ddot": 0,
        "tle_line1": "1 66909U 98067XV  25347.69190829  .00073490  00000+0  12038-2 0  9993",
        "tle_line2": "2 66909  51.6299 137.6482 0004351 233.7111 126.3477 15.51801579  1762"
      },
      "geometry": {
        "type": "Point",
        "coordinates": [
          -50.51660976526754,
          6.8376210269918385
        ]
      }
    },
    {
      "type": "Feature",
      "properties": {
        "norad_id": 66910,
        "name": "1998-067XW",
        "group": "stations",
        "lat": -0.1770343056238783,
        "lon": -44.94304659272727,
        "alt_km": 408.9149069092955,
        "timestamp": "2025-12-14T05:42:17.221336+00:00",
        "meta_object_name": "1998-067XW",
        "meta_object_id": "1998-067XW",
        "meta_epoch": "2025-12-13T16:34:05.866752",
        "meta_mean_motion": 15.51910394,
        "meta_eccentricity": 0.00050843,
        "meta_inclination": 51.6299,
        "meta_ra_of_asc_node": 137.6381,
        "meta_arg_of_pericenter": 213.9756,
        "meta_mean_anomaly": 146.0909,
        "meta_ephemeris_type": 0,
        "meta_classification_type": "U",
        "meta_norad_cat_id": 66910,
        "meta_element_set_no": 999,
        "meta_rev_at_epoch": 176,
        "meta_bstar": 0.001065728,
        "meta_mean_motion_dot": 0.00065203,
        "meta_mean_motion_ddot": 0,
        "tle_line1": "1 66910U 98067XW  25347.69034568  .00065203  00000+0  10657-2 0  9990",
        "tle_line2": "2 66910  51.6299 137.6381 0005084 213.9756 146.0909 15.51910394  1766"
      },
      "geometry": {
        "type": "Point",
        "coordinates": [
          -44.94304659272727,
          -0.1770343056238783
        ]
      }
    },
    {
      "type": "Feature",
      "properties": {
        "norad_id": 66911,
        "name": "1998-067XX",
        "group": "stations",
        "lat": -4.469417207305457,
        "lon": -41.54421920004644,
        "alt_km": 408.6279808947547,
        "timestamp": "2025-12-14T05:42:17.221346+00:00",
        "meta_object_name": "1998-067XX",
        "meta_object_id": "1998-067XX",
        "meta_epoch": "2025-12-13T16:32:49.998912",
        "meta_mean_motion": 15.52189321,
        "meta_eccentricity": 0.00048024,
        "meta_inclination": 51.6299,
        "meta_ra_of_asc_node": 137.6321,
        "meta_arg_of_pericenter": 215.3057,
        "meta_mean_anomaly": 144.7616,
        "meta_ephemeris_type": 0,
        "meta_classification_type": "U",
        "meta_norad_cat_id": 66911,
        "meta_element_set_no": 999,
        "meta_rev_at_epoch": 175,
        "meta_bstar": 0.0012499181,
        "meta_mean_motion_dot": 0.00077443,
        "meta_mean_motion_ddot": 0,
        "tle_line1": "1 66911U 98067XX  25347.68946758  .00077443  00000+0  12499-2 0  9998",
        "tle_line2": "2 66911  51.6299 137.6321 0004802 215.3057 144.7616 15.52189321  1756"
      },
      "geometry": {
        "type": "Point",
        "coordinates": [
          -41.54421920004644,
          -4.469417207305457
        ]
      }
    },
    {
      "type": "Feature",
      "properties": {
        "norad_id": 66912,
        "name": "1998-067XY",
        "group": "stations",
        "lat": 16.220384623062134,
        "lon": -58.36569323945705,
        "alt_km": 410.33489606371404,
        "timestamp": "2025-12-14T05:42:17.221357+00:00",
        "meta_object_name": "1998-067XY",
        "meta_object_id": "1998-067XY",
        "meta_epoch": "2025-12-13T16:39:11.573280",
        "meta_mean_motion": 15.51258263,
        "meta_eccentricity": 0.00045018,
        "meta_inclination": 51.6303,
        "meta_ra_of_asc_node": 137.6613,
        "meta_arg_of_pericenter": 228.8979,
        "meta_mean_anomaly": 131.1622,
        "meta_ephemeris_type": 0,
        "meta_classification_type": "U",
        "meta_norad_cat_id": 66912,
        "meta_element_set_no": 999,
        "meta_rev_at_epoch": 175,
        "meta_bstar": 0.00089167001,
        "meta_mean_motion_dot": 0.00053126,
        "meta_mean_motion_ddot": 0,
        "tle_line1": "1 66912U 98067XY  25347.69388395  .00053126  00000+0  89167-3 0  9996",
        "tle_line2": "2 66912  51.6303 137.6613 0004501 228.8979 131.1622 15.51258263  1753"
      },
      "geometry": {
        "type": "Point",
        "coordinates": [
          -58.36569323945705,
          16.220384623062134
        ]
      }
    }
  ]
}